ONEWEB-0365             
1 49291U 21090N   25285.18997106  .00000030  00000+0  43028-4 0  9993
2 49291  87.9278 354.2793 0001870 103.2716 256.8626 13.19724841193713
ONEWEB-0366             
1 49292U 21090P   25285.21579554  .00000181  00000+0  45470-3 0  9990
2 49292  87.9047 339.1149 0001864  96.0332 264.1010 13.14502206194984
ONEWEB-0367             
1 49293U 21090Q   25285.13532652  .00000054  00000+0  10087-3 0  9995
2 49293  87.9224 323.9024 0002006 100.6079 259.5280 13.20772173197084
ONEWEB-0368             
1 49294U 21090R   25285.33576411 -.00000040  00000+0 -12913-3 0  9996
2 49294  87.9221 323.8973 0001110 101.1747 258.9512 13.20772591198263
ONEWEB-0369             
1 49295U 21090S   25285.26103940 -.00000388  00000+0 -10027-2 0  9990
2 49295  87.9273 354.2968 0001798 102.4053 257.7281 13.19725141193711
ONEWEB-0370             
1 49296U 21090T   25285.14479913  .00000131  00000+0  28930-3 0  9991
2 49296  87.9218 323.9083 0002266  96.8341 263.3050 13.20772061197120
ONEWEB-0371             
1 49297U 21090U   25285.19312479  .00000287  00000+0  68366-3 0  9999
2 49297  87.9270 354.2979 0002004 103.3776 256.7581 13.19725469193743
ONEWEB-0372             
1 49298U 21090V   25285.13359397  .00000097  00000+0  20629-3 0  9993
2 49298  87.9221 323.9129 0001803  99.1461 260.9876 13.20768922197098
ONEWEB-0373             
1 49299U 21090W   25285.16056167  .00000059  00000+0  11280-3 0  9997
2 49299  87.9217 323.9209 0001922  92.9788 267.1566 13.20773265198281
ONEWEB-0374             
1 49300U 21090X   25285.20310787  .00000113  00000+0  26911-3 0  9994
2 49300  87.9045 339.0930 0001495  85.6867 274.4434 13.14504461194985
ONEWEB-0375             
1 49301U 21090Y   25285.14794156  .00000019  00000+0  14356-4 0  9990
2 49301  87.9221 323.9033 0001863  77.4345 282.6997 13.20773061197784
ONEWEB-0376             
1 49302U 21090Z   25285.26736888 -.00000004  00000+0 -41405-4 0  9993
2 49302  87.9278 354.2669 0001817 107.5837 252.5494 13.19727045193759
ONEWEB-0377             
1 49303U 21090AA  25285.13387919  .00000046  00000+0  80844-4 0  9991
2 49303  87.9226 323.9024 0002069  92.4256 267.7115 13.20769600197777
ONEWEB-0378             
1 49304U 21090AB  25285.15597526  .00000035  00000+0  53905-4 0  9997
2 49304  87.9227 323.9131 0001854  92.0763 268.0582 13.20770534197048
ONEWEB-0379             
1 49305U 21090AC  25285.19834096 -.00000037  00000+0 -13507-3 0  9995
2 49305  87.9045 339.1020 0001741  98.8750 261.2577 13.14503863194989
ONEWEB-0380             
1 49306U 21090AD  25285.26420473 -.00000032  00000+0 -11336-3 0  9997
2 49306  87.9269 354.2932 0001926  93.9362 266.1991 13.19723668193725
