[{"OBJECT_NAME":"ONEWEB-0365","OBJECT_ID":"2021-090N","EPOCH":"2025-10-12T04:33:33.499584","MEAN_MOTION":13.19724841,"ECCENTRICITY":0.00018703,"INCLINATION":87.9278,"RA_OF_ASC_NODE":354.2793,"ARG_OF_PERICENTER":103.2716,"MEAN_ANOMALY":256.8626,"EPHEMERIS_TYPE":0,"CLASSIFICATION_TYPE":"U","NORAD_CAT_ID":49291,"ELEMENT_SET_NO":999,"REV_AT_EPOCH":19371,"BSTAR":4.3028114e-5,"MEAN_MOTION_DOT":3.0e-7,"MEAN_MOTION_DDOT":0},{"OBJECT_NAME":"ONEWEB-0366","OBJECT_ID":"2021-090P","EPOCH":"2025-10-12T05:10:44.734656","MEAN_MOTION":13.14502206,"ECCENTRICITY":0.00018646,"INCLINATION":87.9047,"RA_OF_ASC_NODE":339.1149,"ARG_OF_PERICENTER":96.0332,"MEAN_ANOMALY":264.101,"EPHEMERIS_TYPE":0,"CLASSIFICATION_TYPE":"U","NORAD_CAT_ID":49292,"ELEMENT_SET_NO":999,"REV_AT_EPOCH":19498,"BSTAR":0.00045470485,"MEAN_MOTION_DOT":1.81e-6,"MEAN_MOTION_DDOT":0},{"OBJECT_NAME":"ONEWEB-0367","OBJECT_ID":"2021-090Q","EPOCH":"2025-10-12T03:14:52.211328","MEAN_MOTION":13.20772173,"ECCENTRICITY":0.00020062,"INCLINATION":87.9224,"RA_OF_ASC_NODE":323.9024,"ARG_OF_PERICENTER":100.6079,"MEAN_ANOMALY":259.528,"EPHEMERIS_TYPE":0,"CLASSIFICATION_TYPE":"U","NORAD_CAT_ID":49293,"ELEMENT_SET_NO":999,"REV_AT_EPOCH":19708,"BSTAR":0.00010087033,"MEAN_MOTION_DOT":5.4e-7,"MEAN_MOTION_DDOT":0},{"OBJECT_NAME":"ONEWEB-0368","OBJECT_ID":"2021-090R","EPOCH":"2025-10-12T08:03:30.019104","MEAN_MOTION":13.20772591,"ECCENTRICITY":0.000111,"INCLINATION":87.9221,"RA_OF_ASC_NODE":323.8973,"ARG_OF_PERICENTER":101.1747,"MEAN_ANOMALY":258.9512,"EPHEMERIS_TYPE":0,"CLASSIFICATION_TYPE":"U","NORAD_CAT_ID":49294,"ELEMENT_SET_NO":999,"REV_AT_EPOCH":19826,"BSTAR":-0.00012912737,"MEAN_MOTION_DOT":-4.0e-7,"MEAN_MOTION_DDOT":0},{"OBJECT_NAME":"ONEWEB-0369","OBJECT_ID":"2021-090S","EPOCH":"2025-10-12T06:15:53.804160","MEAN_MOTION":13.19725141,"ECCENTRICITY":0.00017982,"INCLINATION":87.9273,"RA_OF_ASC_NODE":354.2968,"ARG_OF_PERICENTER":102.4053,"MEAN_ANOMALY":257.7281,"EPHEMERIS_TYPE":0,"CLASSIFICATION_TYPE":"U","NORAD_CAT_ID":49295,"ELEMENT_SET_NO":999,"REV_AT_EPOCH":19371,"BSTAR":-0.0010027368,"MEAN_MOTION_DOT":-3.88e-6,"MEAN_MOTION_DDOT":0},{"OBJECT_NAME":"ONEWEB-0370","OBJECT_ID":"2021-090T","EPOCH":"2025-10-12T03:28:30.644832","MEAN_MOTION":13.20772061,"ECCENTRICITY":0.0002266,"INCLINATION":87.9218,"RA_OF_ASC_NODE":323.9083,"ARG_OF_PERICENTER":96.8341,"MEAN_ANOMALY":263.305,"EPHEMERIS_TYPE":0,"CLASSIFICATION_TYPE":"U","NORAD_CAT_ID":49296,"ELEMENT_SET_NO":999,"REV_AT_EPOCH":19712,"BSTAR":0.00028930216,"MEAN_MOTION_DOT":1.31e-6,"MEAN_MOTION_DDOT":0},{"OBJECT_NAME":"ONEWEB-0371","OBJECT_ID":"2021-090U","EPOCH":"2025-10-12T04:38:05.981856","MEAN_MOTION":13.19725469,"ECCENTRICITY":0.00020049,"INCLINATION":87.927,"RA_OF_ASC_NODE":354.2979,"ARG_OF_PERICENTER":103.3776,"MEAN_ANOMALY":256.7581,"EPHEMERIS_TYPE":0,"CLASSIFICATION_TYPE":"U","NORAD_CAT_ID":49297,"ELEMENT_SET_NO":999,"REV_AT_EPOCH":19374,"BSTAR":0.00068366074,"MEAN_MOTION_DOT":2.87e-6,"MEAN_MOTION_DDOT":0},{"OBJECT_NAME":"ONEWEB-0372","OBJECT_ID":"2021-090V","EPOCH":"2025-10-12T03:12:22.519008","MEAN_MOTION":13.20768922,"ECCENTRICITY":0.00018032,"INCLINATION":87.9221,"RA_OF_ASC_NODE":323.9129,"ARG_OF_PERICENTER":99.1461,"MEAN_ANOMALY":260.9876,"EPHEMERIS_TYPE":0,"CLASSIFICATION_TYPE":"U","NORAD_CAT_ID":49298,"ELEMENT_SET_NO":999,"REV_AT_EPOCH":19709,"BSTAR":0.00020629015,"MEAN_MOTION_DOT":9.7e-7,"MEAN_MOTION_DDOT":0},{"OBJECT_NAME":"ONEWEB-0373","OBJECT_ID":"2021-090W","EPOCH":"2025-10-12T03:51:12.528288","MEAN_MOTION":13.20773265,"ECCENTRICITY":0.00019226,"INCLINATION":87.9217,"RA_OF_ASC_NODE":323.9209,"ARG_OF_PERICENTER":92.9788,"MEAN_ANOMALY":267.1566,"EPHEMERIS_TYPE":0,"CLASSIFICATION_TYPE":"U","NORAD_CAT_ID":49299,"ELEMENT_SET_NO":999,"REV_AT_EPOCH":19828,"BSTAR":0.00011279627,"MEAN_MOTION_DOT":5.9e-7,"MEAN_MOTION_DDOT":0},{"OBJECT_NAME":"ONEWEB-0374","OBJECT_ID":"2021-090X","EPOCH":"2025-10-12T04:52:28.519968","MEAN_MOTION":13.14504461,"ECCENTRICITY":0.00014954,"INCLINATION":87.9045,"RA_OF_ASC_NODE":339.093,"ARG_OF_PERICENTER":85.6867,"MEAN_ANOMALY":274.4434,"EPHEMERIS_TYPE":0,"CLASSIFICATION_TYPE":"U","NORAD_CAT_ID":49300,"ELEMENT_SET_NO":999,"REV_AT_EPOCH":19498,"BSTAR":0.00026910884,"MEAN_MOTION_DOT":1.13e-6,"MEAN_MOTION_DDOT":0},{"OBJECT_NAME":"ONEWEB-0375","OBJECT_ID":"2021-090Y","EPOCH":"2025-10-12T03:33:02.150784","MEAN_MOTION":13.20773061,"ECCENTRICITY":0.00018637,"INCLINATION":87.9221,"RA_OF_ASC_NODE":323.9033,"ARG_OF_PERICENTER":77.4345,"MEAN_ANOMALY":282.6997,"EPHEMERIS_TYPE":0,"CLASSIFICATION_TYPE":"U","NORAD_CAT_ID":49301,"ELEMENT_SET_NO":999,"REV_AT_EPOCH":19778,"BSTAR":1.4355763e-5,"MEAN_MOTION_DOT":1.9e-7,"MEAN_MOTION_DDOT":0},{"OBJECT_NAME":"ONEWEB-0376","OBJECT_ID":"2021-090Z","EPOCH":"2025-10-12T06:25:00.671232","MEAN_MOTION":13.19727045,"ECCENTRICITY":0.00018174,"INCLINATION":87.9278,"RA_OF_ASC_NODE":354.2669,"ARG_OF_PERICENTER":107.5837,"MEAN_ANOMALY":252.5494,"EPHEMERIS_TYPE":0,"CLASSIFICATION_TYPE":"U","NORAD_CAT_ID":49302,"ELEMENT_SET_NO":999,"REV_AT_EPOCH":19375,"BSTAR":-4.1404817e-5,"MEAN_MOTION_DOT":-4.0e-8,"MEAN_MOTION_DDOT":0},{"OBJECT_NAME":"ONEWEB-0377","OBJECT_ID":"2021-090AA","EPOCH":"2025-10-12T03:12:47.162016","MEAN_MOTION":13.207696,"ECCENTRICITY":0.00020695,"INCLINATION":87.9226,"RA_OF_ASC_NODE":323.9024,"ARG_OF_PERICENTER":92.4256,"MEAN_ANOMALY":267.7115,"EPHEMERIS_TYPE":0,"CLASSIFICATION_TYPE":"U","NORAD_CAT_ID":49303,"ELEMENT_SET_NO":999,"REV_AT_EPOCH":19777,"BSTAR":8.0844209e-5,"MEAN_MOTION_DOT":4.6e-7,"MEAN_MOTION_DDOT":0},{"OBJECT_NAME":"ONEWEB-0378","OBJECT_ID":"2021-090AB","EPOCH":"2025-10-12T03:44:36.262464","MEAN_MOTION":13.20770534,"ECCENTRICITY":0.00018544,"INCLINATION":87.9227,"RA_OF_ASC_NODE":323.9131,"ARG_OF_PERICENTER":92.0763,"MEAN_ANOMALY":268.0582,"EPHEMERIS_TYPE":0,"CLASSIFICATION_TYPE":"U","NORAD_CAT_ID":49304,"ELEMENT_SET_NO":999,"REV_AT_EPOCH":19704,"BSTAR":5.3904732e-5,"MEAN_MOTION_DOT":3.5e-7,"MEAN_MOTION_DDOT":0},{"OBJECT_NAME":"ONEWEB-0379","OBJECT_ID":"2021-090AC","EPOCH":"2025-10-12T04:45:36.658944","MEAN_MOTION":13.14503863,"ECCENTRICITY":0.00017415,"INCLINATION":87.9045,"RA_OF_ASC_NODE":339.102,"ARG_OF_PERICENTER":98.875,"MEAN_ANOMALY":261.2577,"EPHEMERIS_TYPE":0,"CLASSIFICATION_TYPE":"U","NORAD_CAT_ID":49305,"ELEMENT_SET_NO":999,"REV_AT_EPOCH":19498,"BSTAR":-0.00013506502,"MEAN_MOTION_DOT":-3.7e-7,"MEAN_MOTION_DDOT":0},{"OBJECT_NAME":"ONEWEB-0380","OBJECT_ID":"2021-090AD","EPOCH":"2025-10-12T06:20:27.288672","MEAN_MOTION":13.19723668,"ECCENTRICITY":0.0001926,"INCLINATION":87.9269,"RA_OF_ASC_NODE":354.2932,"ARG_OF_PERICENTER":93.9362,"MEAN_ANOMALY":266.1991,"EPHEMERIS_TYPE":0,"CLASSIFICATION_TYPE":"U","NORAD_CAT_ID":49306,"ELEMENT_SET_NO":999,"REV_AT_EPOCH":19372,"BSTAR":-0.0001133555,"MEAN_MOTION_DOT":-3.2e-7,"MEAN_MOTION_DDOT":0}]
